{
  "type": "FeatureCollection",
  "features": [
    {
      "type": "Feature",
      "properties": {
        "norad_id": 66934,
        "name": "STARLINK-36153",
        "group": "last-30-days",
        "lat": -35.90105566977025,
        "lon": -33.15581803358247,
        "alt_km": 360.05786527901273,
        "timestamp": "2025-12-22T20:43:44.567324+00:00",
        "meta_object_name": "STARLINK-36153",
        "meta_object_id": "2025-286K",
        "meta_epoch": "2025-12-22T14:00:01.999872",
        "meta_mean_motion": 15.72397882,
        "meta_eccentricity": 0.00010535,
        "meta_inclination": 53.1593,
        "meta_ra_of_asc_node": 1.1019,
        "meta_arg_of_pericenter": 78.3899,
        "meta_mean_anomaly": 87.2766,
        "meta_ephemeris_type": 0,
        "meta_classification_type": "U",
        "meta_norad_cat_id": 66934,
        "meta_element_set_no": 999,
        "meta_rev_at_epoch": 357,
        "meta_bstar": -0.01631156,
        "meta_mean_motion_dot": -0.01958789,
        "meta_mean_motion_ddot": 0,
        "tle_line1": "1 66934U 25286K   25356.58335648 -.01958789  00000+0 -16312-1 0  9996",
        "tle_line2": "2 66934  53.1593   1.1019 0001053  78.3899  87.2766 15.72397882  3574"
      },
      "geometry": {
        "type": "Point",
        "coordinates": [
          -33.15581803358247,
          -35.90105566977025
        ]
      }
    },
    {
      "type": "Feature",
      "properties": {
        "norad_id": 66935,
        "name": "STARLINK-36127",
        "group": "last-30-days",
        "lat": -34.60394952552809,
        "lon": -31.440576981686966,
        "alt_km": 359.9900317511119,
        "timestamp": "2025-12-22T20:43:44.567334+00:00",
        "meta_object_name": "STARLINK-36127",
        "meta_object_id": "2025-286L",
        "meta_epoch": "2025-12-22T14:00:01.999872",
        "meta_mean_motion": 15.72394831,
        "meta_eccentricity": 0.00012315,
        "meta_inclination": 53.1588,
        "meta_ra_of_asc_node": 1.0977,
        "meta_arg_of_pericenter": 73.6423,
        "meta_mean_anomaly": 93.9417,
        "meta_ephemeris_type": 0,
        "meta_classification_type": "U",
        "meta_norad_cat_id": 66935,
        "meta_element_set_no": 999,
        "meta_rev_at_epoch": 357,
        "meta_bstar": -0.016262068,
        "meta_mean_motion_dot": -0.01953442,
        "meta_mean_motion_ddot": 0,
        "tle_line1": "1 66935U 25286L   25356.58335648 -.01953442  00000+0 -16262-1 0  9992",
        "tle_line2": "2 66935  53.1588   1.0977 0001231  73.6423  93.9417 15.72394831  3578"
      },
      "geometry": {
        "type": "Point",
        "coordinates": [
          -31.440576981686966,
          -34.60394952552809
        ]
      }
    },
    {
      "type": "Feature",
      "properties": {
        "norad_id": 66936,
        "name": "STARLINK-36160",
        "group": "last-30-days",
        "lat": -33.28156125707139,
        "lon": -29.7744524538517,
        "alt_km": 359.88653800907105,
        "timestamp": "2025-12-22T20:43:44.567346+00:00",
        "meta_object_name": "STARLINK-36160",
        "meta_object_id": "2025-286M",
        "meta_epoch": "2025-12-22T14:00:01.999872",
        "meta_mean_motion": 15.72390467,
        "meta_eccentricity": 0.00011824,
        "meta_inclination": 53.159,
        "meta_ra_of_asc_node": 1.0945,
        "meta_arg_of_pericenter": 74.4945,
        "meta_mean_anomaly": 95.0087,
        "meta_ephemeris_type": 0,
        "meta_classification_type": "U",
        "meta_norad_cat_id": 66936,
        "meta_element_set_no": 999,
        "meta_rev_at_epoch": 357,
        "meta_bstar": -0.016210535,
        "meta_mean_motion_dot": -0.019476,
        "meta_mean_motion_ddot": 0,
        "tle_line1": "1 66936U 25286M   25356.58335648 -.01947600  00000+0 -16211-1 0  9996",
        "tle_line2": "2 66936  53.1590   1.0945 0001182  74.4945  95.0087 15.72390467  3577"
      },
      "geometry": {
        "type": "Point",
        "coordinates": [
          -29.7744524538517,
          -33.28156125707139
        ]
      }
    },
    {
      "type": "Feature",
      "properties": {
        "norad_id": 66937,
        "name": "STARLINK-36165",
        "group": "last-30-days",
        "lat": -31.939984497802758,
        "lon": -28.16289993194894,
        "alt_km": 359.703481136753,
        "timestamp": "2025-12-22T20:43:44.567358+00:00",
        "meta_object_name": "STARLINK-36165",
        "meta_object_id": "2025-286N",
        "meta_epoch": "2025-12-22T14:00:01.999872",
        "meta_mean_motion": 15.72404324,
        "meta_eccentricity": 0.00010904,
        "meta_inclination": 53.1591,
        "meta_ra_of_asc_node": 1.09,
        "meta_arg_of_pericenter": 70.714,
        "meta_mean_anomaly": 100.6925,
        "meta_ephemeris_type": 0,
        "meta_classification_type": "U",
        "meta_norad_cat_id": 66937,
        "meta_element_set_no": 999,
        "meta_rev_at_epoch": 357,
        "meta_bstar": -0.016316899,
        "meta_mean_motion_dot": -0.01959865,
        "meta_mean_motion_ddot": 0,
        "tle_line1": "1 66937U 25286N   25356.58335648 -.01959865  00000+0 -16317-1 0  9990",
        "tle_line2": "2 66937  53.1591   1.0900 0001090  70.7140 100.6925 15.72404324  3576"
      },
      "geometry": {
        "type": "Point",
        "coordinates": [
          -28.16289993194894,
          -31.939984497802758
        ]
      }
    },
    {
      "type": "Feature",
      "properties": {
        "norad_id": 66938,
        "name": "STARLINK-36155",
        "group": "last-30-days",
        "lat": -30.574576585715494,
        "lon": -26.593816933658584,
        "alt_km": 359.5540766473323,
        "timestamp": "2025-12-22T20:43:44.567370+00:00",
        "meta_object_name": "STARLINK-36155",
        "meta_object_id": "2025-286P",
        "meta_epoch": "2025-12-22T14:00:01.999872",
        "meta_mean_motion": 15.72399229,
        "meta_eccentricity": 9.962e-05,
        "meta_inclination": 53.159,
        "meta_ra_of_asc_node": 1.0856,
        "meta_arg_of_pericenter": 72.9539,
        "meta_mean_anomaly": 100.3742,
        "meta_ephemeris_type": 0,
        "meta_classification_type": "U",
        "meta_norad_cat_id": 66938,
        "meta_element_set_no": 999,
        "meta_rev_at_epoch": 357,
        "meta_bstar": -0.016278371,
        "meta_mean_motion_dot": -0.0195532,
        "meta_mean_motion_ddot": 0,
        "tle_line1": "1 66938U 25286P   25356.58335648 -.01955320  00000+0 -16278-1 0  9999",
        "tle_line2": "2 66938  53.1590   1.0856 0000996  72.9539 100.3742 15.72399229  3577"
      },
      "geometry": {
        "type": "Point",
        "coordinates": [
          -26.593816933658584,
          -30.574576585715494
        ]
      }
    },
    {
      "type": "Feature",
      "properties": {
        "norad_id": 66939,
        "name": "STARLINK-36154",
        "group": "last-30-days",
        "lat": -27.793239184016457,
        "lon": -23.58720092853312,
        "alt_km": 359.36823544289655,
        "timestamp": "2025-12-22T20:43:44.567380+00:00",
        "meta_object_name": "STARLINK-36154",
        "meta_object_id": "2025-286Q",
        "meta_epoch": "2025-12-22T14:00:01.999872",
        "meta_mean_motion": 15.7239705,
        "meta_eccentricity": 0.00010752,
        "meta_inclination": 53.1587,
        "meta_ra_of_asc_node": 1.0776,
        "meta_arg_of_pericenter": 69.8039,
        "meta_mean_anomaly": 107.3595,
        "meta_ephemeris_type": 0,
        "meta_classification_type": "U",
        "meta_norad_cat_id": 66939,
        "meta_element_set_no": 999,
        "meta_rev_at_epoch": 357,
        "meta_bstar": -0.016259043,
        "meta_mean_motion_dot": -0.01953165,
        "meta_mean_motion_ddot": 0,
        "tle_line1": "1 66939U 25286Q   25356.58335648 -.01953165  00000+0 -16259-1 0  9994",
        "tle_line2": "2 66939  53.1587   1.0776 0001075  69.8039 107.3595 15.72397050  3577"
      },
      "geometry": {
        "type": "Point",
        "coordinates": [
          -23.58720092853312,
          -27.793239184016457
        ]
      }
    },
    {
      "type": "Feature",
      "properties": {
        "norad_id": 66940,
        "name": "STARLINK-36121",
        "group": "last-30-days",
        "lat": -26.375607011982883,
        "lon": -22.140217817676874,
        "alt_km": 359.3772311726816,
        "timestamp": "2025-12-22T20:43:44.567391+00:00",
        "meta_object_name": "STARLINK-36121",
        "meta_object_id": "2025-286R",
        "meta_epoch": "2025-12-22T14:00:01.999872",
        "meta_mean_motion": 15.72401866,
        "meta_eccentricity": 0.00010266,
        "meta_inclination": 53.1584,
        "meta_ra_of_asc_node": 1.0728,
        "meta_arg_of_pericenter": 84.8952,
        "meta_mean_anomaly": 94.1855,
        "meta_ephemeris_type": 0,
        "meta_classification_type": "U",
        "meta_norad_cat_id": 66940,
        "meta_element_set_no": 999,
        "meta_rev_at_epoch": 357,
        "meta_bstar": -0.016345515,
        "meta_mean_motion_dot": -0.01962672,
        "meta_mean_motion_ddot": 0,
        "tle_line1": "1 66940U 25286R   25356.58335648 -.01962672  00000+0 -16346-1 0  9996",
        "tle_line2": "2 66940  53.1584   1.0728 0001026  84.8952  94.1855 15.72401866  3573"
      },
      "geometry": {
        "type": "Point",
        "coordinates": [
          -22.140217817676874,
          -26.375607011982883
        ]
      }
    }
  ]
}